{
  "_IMPORTANT_FIND_HOSTPITALS_WITH_THIS_POST_CODE": 100115,
  "_AVAILABLE_TYPES_OF_HOSPITALS": [
    "Dental",
    "Diagnostics",
    "Oncology",
    "Psychiatric",
    "Local",
    "Cardiac",
    "Urologic",
    "Private",
    "Surgical"
  ],

  "postCode": 100115,
  "district": "Chilonzor",
  "neighbours": [100011, 100022, 100126],
  "hospitals": [
    {
      "postCode": 100115,
      "name": "CENTRAL POLYCLINIC OF CHILANZAR DISTRICT",
      "type": "Diagnostics",
      "address": "BUNYODKOR avenue, 7A"
    },
    {
      "postCode": 100115,
      "name": " FAMILY POLYCLINIC #33",
      "type": "Cardiac",
      "address": "1st TIRSAKOBOD pass., 7"
    },
    {
      "postCode": 100115,
      "name": "DEO CHANG JO. CLINIC",
      "type": "Private",
      "address": "ARNASAY (former PIONERSKAYA) St., 51/1"
    },
    {
      "postCode": 100115,
      "name": "CENTER OF DOCTOR BUBNOVSKY MEDICAL CENTRE",
      "type": "Diagnostics",
      "address": "GAGARIN St., 41"
    },
    {
      "postCode": 100115,
      "name": "BEK NUR STOM. STOMATOLOGY",
      "type": "Dental",
      "address": "CHILANZAR-8 block, CHAPANATA St., 53/25"
    },
    {
      "postCode": 100115,
      "name": "PERSONA-DENTAL-CLINIC DENTAL CLINIC.",
      "type": "Dental",
      "address": "KATARTAL St., CHILANZAR-5 block, 25/37"
    },
    {
      "postCode": 100115,
      "name": "LIDER-STOM. STOMATOLOGY",
      "type": "Dental",
      "address": "KATARTAL St., CHILANZAR-6 block, 31/13"
    },
    {
      "postCode": 100115,
      "name": "Estimed",
      "type": "Cardiac",
      "address": "Chilanzar Street 43/1"
    },
    {
      "postCode": 100115,
      "name": "Gatling-MED",
      "type": "Surgical",
      "address": "5/1 дом, 1 квартал"
    },
    {
      "postCode": 100115,
      "name": "16-Balnitsa",
      "type": "Urologic",
      "address": "2 Little Ring Road"
    },
    {
      "postCode": 100115,
      "name": "Republican Surgery Center",
      "type": "Surgical",
      "address": "10 Little Ring Road"
    },
    
    
    
  ]
}
