{
  "_IMPORTANT_FIND_HOSTPITALS_WITH_THIS_POST_CODE": 100022,
  "_AVAILABLE_TYPES_OF_HOSPITALS": [
    "Dental",
    "Diagnostics",
    "Oncology",
    "Psychiatric",
    "Local",
    "Cardiac",
    "Urologic",
    "Private",
    "Surgical"
  ],

  "postCode": 100022,
  "district": "Mirzo Ulugbek",
  "neighbours": [100114, 100007],
  "hospitals": [
    {
      "postCode": 100022,
      "name": "Local",
      "type": "FAMILY POLYCLINIC #4",
      "address": "KALANDAR avenue, 2"
    },
    {
      "postCode": 100022,
      "name": "Dental",
      "type": "Sadafkom",
      "address": "st. Mustaqillik, 86A"
    },
    {
      "postCode": 100022,
      "name": "Local",
      "type": "FAMILY POLYCLINIC #8",
      "address": " st. MINGBULOQ, 40"
    },
    {
      "postCode": 100022,
      "name": "Cardiac",
      "type": "UMC",
      "address": "st. Mustaqillik, 86A"
    },
    {
      "postCode": 100022,
      "name": "Local",
      "type": "CENTRAL MULTIDISCIPLINE POLYCLINIC AT RMO #8",
      "address": " TTZ-2 avenue"
    },
    {
      "postCode": 100022,
      "name": "Private",
      "type": "1 MEDICAL AND LABOR EXPERT COMMISSION (VTEK)",
      "address": " Qorasu-2 avenue, 40"
    },
    {
      "postCode": 100022,
      "name": "Diagnostics",
      "type": "Medical Center for Obstetrics and Gynecology",
      "address": "st. Feruza, 132a"
    },
    {
      "postCode": 100022,
      "name": "Private",
      "type": "MEDICANA MEDICAL CENTER",
      "address": "st. Akkurgan, 20A"
    },
    {
      "postCode": 100022,
      "name": "Diagnostics",
      "type": "IX MED CLINIC",
      "address": "st. Ravnak, 41"
    }
  ]
}
.
